2023-104A               
1 57424U 23104A   26065.78279804  .00015492  00000+0  48200-3 0  9993
2 57424  97.2792 135.5625 0009333 122.1915 238.0234 15.33350758146346
STARLINK-31372          
1 58939U 24027J   26068.93959115  .00003510  00000+0  13063-3 0  9997
2 58939  53.1594 308.6676 0000871  81.1428 278.9672 15.30189208117365
